NORAD_CAT_ID,OBJECT_NAME,OBJECT_TYPE,EPOCH,MEAN_MOTION,ECCENTRICITY,INCLINATION,RA_OF_ASC_NODE,ARG_OF_PERICENTER,MEAN_ANOMALY,BSTAR,MEAN_MOTION_DOT,MEAN_MOTION_DDOT,TLE_LINE0,TLE_LINE1,TLE_LINE2,SEMIMAJOR_AXIS,PERIOD,APOGEE,PERIGEE,DECAYED
51987.0,STARLINK-3644,PAYLOAD,2024-01-15 05:36:15,15.08860874,0.0001533,53.2172,320.6827,108.4987,251.6172,0.00036599,5.545e-05,0.0,0 STARLINK-3644,1 51987U 22025AH  24015.23351018  .00005545  00000-0  36599-3 0  9990,2 51987  53.2172 320.6827 0001533 108.4987 251.6172 15.08860874103723,6917.817,95.436,540.742,538.621,0.0
51987.0,STARLINK-3644,PAYLOAD,2024-01-16 00:40:54,15.08835446,0.0001564,53.2175,317.1169,79.8506,280.2662,-7.0201e-06,-4e-06,0.0,0 STARLINK-3644,1 51987U 22025AH  24016.02840482 -.00000400  00000-0 -70201-5 0  9993,2 51987  53.2175 317.1169 0001564  79.8506 280.2662 15.08835446103840,6917.894,95.438,540.841,538.677,0.0
51987.0,STARLINK-3644,PAYLOAD,2024-01-16 05:27:03,15.0884233,0.0002019,53.2174,316.224,104.5982,255.5235,0.00010518,1.386e-05,0.0,0 STARLINK-3644,1 51987U 22025AH  24016.22712182  .00001386  00000-0  10518-3 0  9995,2 51987  53.2174 316.2240 0002019 104.5982 255.5235 15.08842330103873,6917.873,95.437,541.135,538.342,0.0
51987.0,STARLINK-3644,PAYLOAD,2024-01-17 02:07:03,15.08858104,0.0001433,53.2168,312.3569,101.8791,258.2361,0.00035958,5.442e-05,0.0,0 STARLINK-3644,1 51987U 22025AH  24017.08823285  .00005442  00000-0  35958-3 0  9999,2 51987  53.2168 312.3569 0001433 101.8791 258.2361 15.08858104104006,6917.825,95.436,540.681,538.699,0.0
51987.0,STARLINK-3644,PAYLOAD,2024-01-17 22:47:04,15.0883963,0.0001488,53.2169,308.4935,96.5989,263.5173,4.4189e-05,4.15e-06,0.0,0 STARLINK-3644,1 51987U 22025AH  24017.94936332  .00000415  00000-0  44189-4 0  9994,2 51987  53.2169 308.4935 0001488  96.5989 263.5173 15.08839630103045,6917.882,95.438,540.776,538.717,0.0
51987.0,STARLINK-3644,PAYLOAD,2024-01-18 01:57:51,15.08841101,0.0001478,53.2165,307.8979,97.2489,262.8671,3.4184e-05,2.56e-06,0.0,0 STARLINK-3644,1 51987U 22025AH  24018.08184274  .00000256  00000-0  34184-4 0  9997,2 51987  53.2165 307.8979 0001478  97.2489 262.8671 15.08841101104158,6917.877,95.437,540.764,538.72,0.0
51987.0,STARLINK-3644,PAYLOAD,2024-01-18 22:37:51,15.08842293,0.0001459,53.2162,304.0314,99.7704,260.3452,-4.6636e-05,-1.03e-05,0.0,0 STARLINK-3644,1 51987U 22025AH  24018.94296294 -.00001030  00000-0 -46636-4 0  9996,2 51987  53.2162 304.0314 0001459  99.7704 260.3452 15.08842293103199,6917.873,95.437,540.748,538.729,0.0
51987.0,STARLINK-3644,PAYLOAD,2024-01-19 01:48:39,15.08815214,0.0001763,53.2174,303.4363,96.7688,263.3505,0.001021,0.00015988,0.0,0 STARLINK-3644,1 51987U 22025AH  24019.07545726  .00015988  00000-0  10210-2 0  9990,2 51987  53.2174 303.4363 0001763  96.7688 263.3505 15.08815214104304,6917.956,95.439,541.041,538.602,0.0
51987.0,STARLINK-3644,PAYLOAD,2024-01-19 19:17:52,15.08840927,0.0001879,53.2177,300.1665,106.8237,253.2961,6.4184e-05,7.34e-06,0.0,0 STARLINK-3644,1 51987U 22025AH  24019.80408098  .00000734  00000-0  64184-4 0  9995,2 51987  53.2177 300.1665 0001879 106.8237 253.2961 15.08840927104412,6917.878,95.437,541.042,538.443,0.0
51987.0,STARLINK-3644,PAYLOAD,2024-01-19 22:28:39,15.08839712,0.0001589,53.217,299.5715,102.3156,257.8014,8.2974e-05,1.033e-05,0.0,0 STARLINK-3644,1 51987U 22025AH  24019.93656333  .00001033  00000-0  82974-4 0  9996,2 51987  53.2170 299.5715 0001589 102.3156 257.8014 15.08839712103341,6917.881,95.438,540.846,538.647,0.0
51987.0,STARLINK-3644,PAYLOAD,2024-01-20 01:39:25,15.08840366,0.0001538,53.2181,298.9772,100.3122,259.8044,0.00011005,1.464e-05,0.0,0 STARLINK-3644,1 51987U 22025AH  24020.06904358  .00001464  00000-0  11005-3 0  9999,2 51987  53.2181 298.9772 0001538 100.3122 259.8044 15.08840366103368,6917.879,95.438,540.808,538.68,0.0
51987.0,STARLINK-3644,PAYLOAD,2024-01-20 19:08:40,15.08834938,0.0001545,53.2179,295.7097,106.8272,253.289,-1.2545e-05,-4.88e-06,0.0,0 STARLINK-3644,1 51987U 22025AH  24020.79769380 -.00000488  00000-0 -12545-4 0  9991,2 51987  53.2179 295.7097 0001545 106.8272 253.2890 15.08834938104563,6917.896,95.438,540.83,538.692,0.0
51987.0,STARLINK-3644,PAYLOAD,2024-01-20 22:19:26,15.0884007,0.0001503,53.2173,295.1113,107.04,253.0757,-4.4088e-05,-9.9e-06,0.0,0 STARLINK-3644,1 51987U 22025AH  24020.93017069 -.00000990  00000-0 -44088-4 0  9992,2 51987  53.2173 295.1113 0001503 107.0400 253.0757 15.08840070103495,6917.88,95.438,540.785,538.705,0.0
51987.0,STARLINK-3644,PAYLOAD,2024-01-21 01:30:12,15.08844152,0.0001877,53.2184,294.5187,123.6593,236.4579,-2.2294e-05,-6.43e-06,0.0,0 STARLINK-3644,1 51987U 22025AH  24021.06264821 -.00000643  00000-0 -22294-4 0  9997,2 51987  53.2184 294.5187 0001877 123.6593 236.4579 15.08844152104608,6917.868,95.437,541.031,538.434,0.0
51987.0,STARLINK-3644,PAYLOAD,2024-01-21 22:10:13,15.08839318,0.0001411,53.2183,290.6521,95.6241,264.4912,8.236e-05,1.023e-05,0.0,0 STARLINK-3644,1 51987U 22025AH  24021.92377100  .00001023  00000-0  82360-4 0  9998,2 51987  53.2183 290.6521 0001411  95.6241 264.4912 15.08839318103641,6917.882,95.438,540.724,538.771,0.0
51987.0,STARLINK-3644,PAYLOAD,2024-01-22 02:56:22,15.08845655,0.0001473,53.2172,289.759,94.5624,265.5536,0.00018841,2.712e-05,0.0,0 STARLINK-3644,1 51987U 22025AH  24022.12248672  .00002712  00000-0  18841-3 0  9990,2 51987  53.2172 289.7590 0001473  94.5624 265.5536 15.08845655104764,6917.863,95.437,540.747,538.709,0.0
51987.0,STARLINK-3644,PAYLOAD,2024-01-22 22:01:01,15.08833479,0.0001463,53.2173,286.1893,96.0945,264.0214,2.328e-05,8.3e-07,0.0,0 STARLINK-3644,1 51987U 22025AH  24022.91737568  .00000083  00000-0  23280-4 0  9997,2 51987  53.2173 286.1893 0001463  96.0945 264.0214 15.08833479103794,6917.9,95.438,540.777,538.753,0.0
51987.0,STARLINK-3644,PAYLOAD,2024-01-23 01:11:47,15.08839597,0.0001722,53.2174,285.5969,77.9894,282.1291,0.00010737,1.421e-05,0.0,0 STARLINK-3644,1 51987U 22025AH  24023.04985455  .00001421  00000-0  10737-3 0  9991,2 51987  53.2174 285.5969 0001722  77.9894 282.1291 15.08839597104908,6917.882,95.438,540.938,538.555,0.0
51987.0,STARLINK-3644,PAYLOAD,2024-01-23 21:51:47,15.08850151,0.0001656,53.2174,281.7295,79.4944,280.6235,0.00016667,2.366e-05,0.0,0 STARLINK-3644,1 51987U 22025AH  24023.91096824  .00002366  00000-0  16667-3 0  9997,2 51987  53.2174 281.7295 0001656  79.4944 280.6235 15.08850151103940,6917.849,95.437,540.86,538.569,0.0
51987.0,STARLINK-3644,PAYLOAD,2024-01-23 23:27:10,15.08852032,0.000178,53.2174,281.4328,73.2055,286.9132,0.00020791,3.023e-05,0.0,0 STARLINK-3644,1 51987U 22025AH  24023.97720797  .00003023  00000-0  20791-3 0  9990,2 51987  53.2174 281.4328 0001780  73.2055 286.9132 15.08852032105045,6917.844,95.437,540.94,538.477,0.0
51987.0,STARLINK-3644,PAYLOAD,2024-01-24 20:07:11,15.0884451,0.0001463,53.2169,277.569,83.919,276.1969,8.0208e-05,9.89e-06,0.0,0 STARLINK-3644,1 51987U 22025AH  24024.83833158  .00000989  00000-0  80208-4 0  9990,2 51987  53.2169 277.5690 0001463  83.9190 276.1969 15.08844510105178,6917.867,95.437,540.744,538.72,0.0
51987.0,STARLINK-3644,PAYLOAD,2024-01-24 21:42:35,15.08843365,0.000151,53.2162,277.2774,89.8469,270.2696,6.6105e-05,7.64e-06,0.0,0 STARLINK-3644,1 51987U 22025AH  24024.90457215  .00000764  00000-0  66105-4 0  9995,2 51987  53.2162 277.2774 0001510  89.8469 270.2696 15.08843365104097,6917.87,95.437,540.78,538.691,0.0
51987.0,STARLINK-3644,PAYLOAD,2024-01-24 23:17:58,15.08844105,0.0001506,53.2161,276.9764,92.4872,267.6292,6.8412e-05,8.01e-06,0.0,0 STARLINK-3644,1 51987U 22025AH  24024.97081107  .00000801  00000-0  68412-4 0  9990,2 51987  53.2161 276.9764 0001506  92.4872 267.6292 15.08844105104101,6917.868,95.437,540.775,538.691,0.0
51987.0,STARLINK-3644,PAYLOAD,2024-01-25 19:57:59,15.0883925,0.0001545,53.2157,273.107,103.6448,256.4716,2.0636e-05,4e-07,0.0,0 STARLINK-3644,1 51987U 22025AH  24025.83193360  .00000040  00000-0  20636-4 0  9992,2 51987  53.2157 273.1070 0001545 103.6448 256.4716 15.08839250105329,6917.883,95.438,540.816,538.679,0.0
51987.0,STARLINK-3644,PAYLOAD,2024-01-25 23:08:45,15.08842492,0.0001597,53.2163,272.5132,95.6223,264.4952,5.4646e-06,-2.01e-06,0.0,0 STARLINK-3644,1 51987U 22025AH  24025.96441234 -.00000201  00000-0  54646-5 0  9991,2 51987  53.2163 272.5132 0001597  95.6223 264.4952 15.08842492104250,6917.873,95.437,540.843,538.633,0.0
51987.0,STARLINK-3644,PAYLOAD,2024-01-26 21:24:09,15.08842471,0.0001768,53.2176,268.3551,112.8867,247.2312,0.00016972,2.414e-05,0.0,0 STARLINK-3644,1 51987U 22025AH  24026.89177103  .00002414  00000-0  16972-3 0  9990,2 51987  53.2176 268.3551 0001768 112.8867 247.2312 15.08842471105480,6917.873,95.437,540.961,538.515,0.0
51987.0,STARLINK-3644,PAYLOAD,2024-01-27 19:39:33,15.08840147,0.0001768,53.2167,264.1966,115.5255,244.592,4.4841e-05,4.26e-06,0.0,0 STARLINK-3644,1 51987U 22025AH  24027.81913382  .00000426  00000-0  44841-4 0  9998,2 51987  53.2167 264.1966 0001768 115.5255 244.5920 15.08840147105624,6917.88,95.438,540.968,538.522,0.0
51987.0,STARLINK-3644,PAYLOAD,2024-01-27 21:14:56,15.08838742,0.0001716,53.2174,263.8981,115.4693,244.6477,6.9022e-05,8.11e-06,0.0,0 STARLINK-3644,1 51987U 22025AH  24027.88537650  .00000811  00000-0  69022-4 0  9991,2 51987  53.2174 263.8981 0001716 115.4693 244.6477 15.08838742104549,6917.884,95.438,540.936,538.562,0.0
51987.0,STARLINK-3644,PAYLOAD,2024-01-28 02:01:05,15.0883939,0.0001493,53.2163,262.9963,98.915,261.2011,6.8926e-05,8.09e-06,0.0,0 STARLINK-3644,1 51987U 22025AH  24028.08409565  .00000809  00000-0  68926-4 0  9996,2 51987  53.2163 262.9963 0001493  98.9150 261.2011 15.08839390104574,6917.882,95.438,540.78,538.714,0.0
51987.0,STARLINK-3644,PAYLOAD,2024-01-28 19:30:20,15.08837011,0.0001478,53.2161,259.7243,100.7177,259.3981,-2.0086e-06,-3.2e-06,0.0,0 STARLINK-3644,1 51987U 22025AH  24028.81274047 -.00000320  00000-0 -20086-5 0  9998,2 51987  53.2161 259.7243 0001478 100.7177 259.3981 15.08837011105776,6917.89,95.438,540.777,538.732,0.0
